{"fetched_at":"2026-07-22T07:09:31.079Z","source":"https://celestrak.org/NORAD/elements/gp.php?GROUP=stations&FORMAT=JSON","constellation":"tiangong","records":[{"OBJECT_NAME":"CSS (TIANHE)","OBJECT_ID":"2021-035A","EPOCH":"2026-07-21T10:22:13.652544","CLASSIFICATION_TYPE":"U","MEAN_MOTION":15.58235366,"ECCENTRICITY":0.00017469,"INCLINATION":41.4683,"RA_OF_ASC_NODE":114.0267,"ARG_OF_PERICENTER":306.5318,"MEAN_ANOMALY":53.5359,"EPHEMERIS_TYPE":0,"NORAD_CAT_ID":48274,"ELEMENT_SET_NO":999,"REV_AT_EPOCH":29851,"BSTAR":0.00014511777,"MEAN_MOTION_DOT":0.00010973,"MEAN_MOTION_DDOT":0}]}
